#cP2006  7 18  0  0  0.00000000      96 ORBIT IGb00 HLM  IGS
## 1384 172800.00000000   900.00000000 53934 0.0000000000000
+   29   G01G02G03G04G05G06G07G08G09G10G11G13G14G15G16G17G18
+        G19G20G21G22G23G24G25G26G27G28G29G30  0  0  0  0  0
+          0  0  0  0  0  0  0  0  0  0  0  0  0  0  0  0  0
+          0  0  0  0  0  0  0  0  0  0  0  0  0  0  0  0  0
+          0  0  0  0  0  0  0  0  0  0  0  0  0  0  0  0  0
++         3  3  4  3  3  3  3  3  3  3  3  3  3  3  3  4  3
++         3  3  3  3  3  3  3  3  3  3  3  3  0  0  0  0  0
++         0  0  0  0  0  0  0  0  0  0  0  0  0  0  0  0  0
++         0  0  0  0  0  0  0  0  0  0  0  0  0  0  0  0  0
++         0  0  0  0  0  0  0  0  0  0  0  0  0  0  0  0  0
%c G  cc GPS ccc cccc cccc cccc cccc ccccc ccccc ccccc ccccc
%c cc cc ccc ccc cccc cccc cccc cccc ccccc ccccc ccccc ccccc
%f  1.2500000  1.025000000  0.00000000000  0.000000000000000
%f  0.0000000  0.000000000  0.00000000000  0.000000000000000
%i    0    0    0    0      0      0      0      0         0
%i    0    0    0    0      0      0      0      0         0
/* FINAL ORBIT COMBINATION FROM WEIGHTED AVERAGE OF:        
/* cod emr esa gfz jpl mit ngs sio                          
/* REFERENCED TO IGS TIME (IGST) AND TO WEIGHTED MEAN POLE: 
/* CLK ANT Z-OFFSET (M): II/IIA 1.023; IIR 0.000            
*  2006  7 18  6 45  0.00000000
PG01  -1059.670731  15174.057445  21960.379090     66.013478 10  8  9 120       
PG02  -9323.304870 -21390.050700  12642.924482     14.882408  9 12  8 140       
PG03   5445.729617  15098.683006 -21325.765276    217.232292  9 13 14 106       
PG04   2964.267784 -17156.806678  19921.814632    276.736415  6  8  8 143       
PG05 -13822.482037  -9126.373200  20585.733656    232.443535  8  8  7 125       
PG06 -25718.673063   6292.293654   2735.323834    589.805794 11  8  8 160       
PG07 -13197.628534  16834.973370 -15474.553539    540.499696 10  7  6 146       
PG08  10705.375485 -10495.341008 -22062.930036    -72.855625 13 11 10 136       
PG09 -21219.050410 -15746.213977   3313.435814     28.383859  6  9  9 136       
PG10  -2463.948078 -23265.218437 -12371.734722     86.747048 10  7 11 148       
PG11  23439.883488  11780.653111   4866.345209    339.933908  9  9 10 144       
PG13  25849.438390  -5771.067416   1499.340477     78.135802  7  9  9 122       
PG14 -16768.594721  14617.229855  14530.244098     -9.613878  9  9  9 131       
PG15 -10701.700140  11074.982050 -21771.162302    646.854358  7  8  8 156       
PG16   -965.590348  25325.894773  -7661.838509     57.536254  9 11  8 100       
PG17  17367.039446 -14841.497094  13460.432024    100.190995 13 12 13 138       
PG18 -16149.618373  11314.661603 -17533.189405   -243.444060 10  9  7 150       
PG19  16096.892137   9798.414992 -18629.455195      1.366888 10 10 11 135       
PG20  14551.528117   4685.139719  21628.509474    -24.094342  9  9  9 138       
PG21 -17198.259955   3178.151678 -20057.462107     42.308105 10 11  8 166       
PG22 -11973.022351  22579.420055  -7038.111435    117.301947  7  9  8 148       
PG23  23497.710396   1940.877612  12304.614847    138.286894  6  8 11 146       
PG24  11031.975850 -10680.108311  21905.844126     21.542914  9 10  4 151       
PG25   4050.987861  19448.589872  17958.642108    165.235990  7  9  8 132       
PG26 -14314.896312 -10159.915887 -20512.528717   -183.708026 10 10  7 133       
PG27  17929.827575  -2230.863168 -18969.436179     58.545271 10 10 10 130       
PG28  13035.100222 -20202.826034 -10599.001702     22.888179  9 12 11 131       
PG29 -10933.524086 -11350.370569 -21203.126372    629.679318 10 10  8 135       
PG30 -16015.502197   5736.855858  20083.619607      3.990866  7  9  3 120       
*  2006  7 18  7  0  0.00000000
PG01  -3405.625099  15792.874234  21263.686048     66.015996 10  8  9 131       
PG02  -7985.018645 -20481.883554  14812.231819     14.885847  9 11  8 139       
PG03   3220.804469  16015.366874 -21077.763719    217.213733  8 13 14 101       
PG04   4760.228805 -15635.715141  20834.672213    276.743099  6  8  8 147       
PG05 -13432.110399 -11445.654264  19689.574789    232.472311  8  8  7 131       
PG06 -25405.832776   5837.977396   5479.027222    589.811312 11  8  8 154       
PG07 -14876.830763  17235.822993 -13429.812236    540.498542 10  8  6 140       
PG08  12483.343638  -8765.952084 -21917.947296    -72.856109 13 11 10 136       
PG09 -21281.650378 -16103.717462    482.597852     28.385023  6 10  9 131       
PG10  -1973.617929 -24452.452521  -9874.702746     86.746947 10  7 11 146       
PG11  23560.535977  12349.078452   2197.680709    339.935838  9 10 10 144       
PG13  25564.705230  -5510.905538   4393.471725     78.138630  6  8 10 130       
PG14 -18261.887559  14929.684038  12212.512617     -9.613186  8  9  9 127       
PG15 -12411.946839   9308.623685 -21726.980709    646.859912  7  8  8 153       
PG16  -1367.101926  25986.779993  -4918.576237     57.539361  8 11  8 104       
PG17  18775.536252 -15068.504142  11103.562784    100.190766 13 12 12 147       
PG18 -15776.538651   9216.923296 -19055.205798   -243.445553 10  9  6 148       
PG19  13973.064191  10475.883566 -19917.347197      1.369187 10 10 11 126       
PG20  14036.062927   7108.532477  21309.707830    -24.093457  9  9  9 138       
PG21 -18731.644178   1550.461548 -18893.917152     42.309878 10 10  9 158       
PG22 -11970.213113  21570.689586  -9662.134178    117.305262  7  9  8 143       
PG23  22085.560727   2589.509687  14559.580478    138.286676  7  9 11 154       
PG24  12765.409680  -8952.381705  21760.254454     21.544112  9 10  5 154       
PG25   2304.234947  18325.037451  19434.443772    165.302494  7  9  7 134       
PG26 -12116.285973 -10842.483521 -21523.636386   -183.719436 10 11  7 133       
PG27  19561.979365   -764.548588 -17489.040615     58.548144  9 10  9 133       
PG28  12957.539828 -18780.405957 -13005.501982     22.887242  9 11 11 137       
PG29  -8573.746461 -12171.575291 -21792.933396    629.681625 10 10  8 140       
PG30 -15693.885378   3347.775837  20862.631629      3.991389  7  8  3 125       
*  2006  7 18  7 15  0.00000000
PG01  -5620.580694  16511.706413  20207.019270     66.017046 10  8  9 117       
PG02  -6418.344754 -19497.759873  16725.101416     14.889378  9 11  9 133       
PG03   1080.895902  17015.200180 -20471.416342    217.195062  8 13 14 125       
PG04   6691.231622 -14155.019669  21385.797924    276.749862  6  8  8 144       
PG05 -13162.768832 -13657.679876  18449.994608    232.500928  8  9  8 127       
PG06 -24836.711010   5251.067104   8129.259749    589.816560 10  8  8 142       
PG07 -16308.840088  17614.041247 -11150.604227    540.497213 10  8  7 152       
PG08  14322.402631  -7163.372967 -21401.847909    -72.858222 13 11 10 135       
PG09 -21108.496598 -16264.369794  -2356.480852     28.387398  5 10  9 138       
PG10  -1596.000454 -25375.031674  -7205.508584     86.748281 10  7 11 127       
PG11  23446.874050  12760.480929   -508.262408    339.937782  9 10 10 139       
PG13  24989.950884  -5122.553724   7211.619846     78.141365  5  8 10 124       
PG14 -19479.031894  15227.303282   9684.649109     -9.612762  8  9  9 133       
PG15 -14189.929491   7653.641374 -21314.680791    646.866122  7  8  8 160       
PG16  -1683.106727  26354.905552  -2089.914760     57.541657  8 11  8 109       
PG17  19911.569121 -15266.495879   8554.551204    100.190356 13 12 11 140       
PG18 -15481.204953   6953.189574 -20243.338842   -243.446834 11  8  5 155       
PG19  11765.460168  11301.162054 -20859.764427      1.371375 10 10 11 128       
PG20  13653.535236   9498.072081  20621.263569    -24.093488  9 10  9 141       
PG21 -20228.346611    102.113499 -17408.522710     42.312106 11 10 10 162       
PG22 -11962.238165  20279.572088 -12118.607817    117.308607  8  9  7 155       
PG23  20484.790424   3402.767100  16564.511626    138.286371  7  9 11 140       
PG24  14558.210651  -7344.266372  21248.934682     21.546034  9  9  6 153       
PG25    381.936730  17214.486969  20585.097486    165.369378  7  8  8 132       
PG26  -9870.806730 -11685.432563 -22181.148872   -183.731442 10 11  6 131       
PG27  21108.955859    503.225946 -15696.929613     58.549405  9 10  9 133       
PG28  12909.005044 -17095.811577 -15180.507615     22.886619  9 11 11 134       
PG29  -6218.068653 -13141.360562 -22000.607511    629.683785 10 11  7 136       
PG30 -15481.261869    878.721390  21272.784252      3.991402  6  8  4 120       
EOF
